OBJECT_NAME,OBJECT_ID,EPOCH,MEAN_MOTION,ECCENTRICITY,INCLINATION,RA_OF_ASC_NODE,ARG_OF_PERICENTER,MEAN_ANOMALY,EPHEMERIS_TYPE,CLASSIFICATION_TYPE,NORAD_CAT_ID,ELEMENT_SET_NO,REV_AT_EPOCH,BSTAR,MEAN_MOTION_DOT,MEAN_MOTION_DDOT
GOMX-1,2013-066Q,2026-06-25T20:00:32.560416,14.69486911,.0129859,97.6487,16.7507,50.1209,311.1332,0,U,39430,999,67118,.25537E-3,.1672E-4,0
CUBEBUG-2 (LO-74),2013-066AA,2026-06-25T20:06:56.471040,14.93829236,.0057564,97.8903,125.8528,0.5259,359.6011,0,U,39440,999,67828,.41819E-3,.4524E-4,0
NEE-02 KRYSAOR,2013-066AB,2026-06-25T13:19:35.190624,14.86653035,.0067228,97.8891,115.7100,43.3544,317.2932,0,U,39441,999,67744,.28387E-3,.2568E-4,0
FUNCUBE-1 (AO-73),2013-066AE,2026-06-25T20:56:49.257312,15.09583656,.0036539,97.8271,148.5000,171.4630,188.7228,0,U,39444,999,68097,.50757E-3,.8216E-4,0
UWE-3,2013-066AG,2026-06-25T20:06:32.092416,14.97092153,.0046808,97.8708,132.9703,291.8607,67.7640,0,U,39446,999,67887,.38106E-3,.4431E-4,0
SMDC ONE 2.4,2013-072H,2026-06-25T10:24:16.665408,15.18330751,.0146427,120.4943,23.9257,27.7692,333.1109,0,U,39469,999,11908,.48691E-3,.12989E-3,0
COSMOS 2488 (RODNIK-S 7),2013-076A,2026-06-25T19:29:05.402976,12.42905984,.0020889,82.4833,163.3213,77.5133,282.8282,0,U,39483,999,56696,.119E-3,.27E-6,0
COSMOS 2489 (RODNIK-S 8),2013-076B,2026-06-25T18:53:38.490720,12.42879783,.0022704,82.4870,164.7184,77.5018,282.8600,0,U,39484,999,56701,.2379E-3,.43E-6,0
COSMOS 2490 (RODNIK-S 9),2013-076C,2026-06-25T20:09:05.853312,12.42878981,.0022866,82.4817,162.7493,92.1688,268.2010,0,U,39485,999,56695,.97896E-3,.146E-5,0
KAZEOSAT 1,2014-024A,2026-06-25T20:00:17.172576,14.42082680,.0001239,98.3206,249.0660,75.1689,284.9638,0,U,39731,999,63980,.34385E-4,.7E-6,0
COSMOS 2496 (RODNIK-S 10),2014-028A,2026-06-25T21:03:49.632192,12.42878823,.0021333,82.4451,103.2883,60.9468,299.3745,0,U,39761,999,54859,-.11352E-3,-.6E-7,0
COSMOS 2497 (RODNIK-S 11),2014-028B,2026-06-25T20:28:04.342656,12.42894907,.0021848,82.4498,104.9969,56.2869,304.0289,0,U,39762,999,54859,.66778E-3,.102E-5,0
COSMOS 2498 (RODNIK-S 12),2014-028C,2026-06-25T19:54:57.337056,12.42980674,.0022569,82.4459,103.4946,55.8931,304.4286,0,U,39763,999,54862,.41125E-3,.67E-6,0
HODOYOSHI-4,2014-033B,2026-06-25T20:13:09.788160,14.88143804,.0022137,97.5456,1.2475,278.1071,81.7635,0,U,40011,999,65009,.11174E-3,.981E-5,0
UNISAT-6,2014-033C,2026-06-25T16:07:36.847200,14.88284498,.0045787,97.7883,329.2349,42.0208,318.4506,0,U,40012,999,64742,.2774E-3,.2557E-4,0
DEIMOS-2,2014-033D,2026-06-25T19:47:24.014400,14.93748854,.0001335,97.5830,51.0101,56.4467,303.6881,0,U,40013,999,63901,.12095E-3,.1227E-4,0
BUGSAT-1 (TITA),2014-033E,2026-06-25T19:36:29.807424,15.15675037,.0028608,98.0423,269.8714,149.2480,211.0435,0,U,40014,999,65714,.40937E-3,.7798E-4,0
SAUDISAT 4,2014-033G,2026-06-25T20:13:58.159200,14.79554772,.0045795,97.7592,322.6786,46.6054,313.8957,0,U,40016,999,64735,.81336E-4,.567E-5,0
APRIZESAT 9,2014-033J,2026-06-25T19:51:46.421568,14.74226017,.0066378,97.9069,309.8154,171.3507,188.8862,0,U,40018,999,64483,.11065E-3,.704E-5,0
BRITE-CA1 (TORONTO),2014-033L,2026-06-25T19:15:45.885024,14.72689009,.0077301,97.9748,305.5721,248.9383,110.3546,0,U,40020,999,64348,.12849E-3,.804E-5,0
DUCHIFAT-1,2014-033M,2026-06-25T17:10:11.457696,15.66313669,.0001518,98.0450,237.0839,101.6443,258.4986,0,U,40021,999,65708,.13462E-2,.141113E-2,0
NANOSATC-BR1,2014-033Q,2026-06-25T15:12:13.016736,15.31712804,.0005085,98.0720,209.7702,143.3230,216.8358,0,U,40024,999,65527,.72838E-3,.22266E-3,0
QB50P1,2014-033R,2026-06-25T20:23:06.497664,15.18382181,.0008695,98.0964,188.6029,184.5667,175.5487,0,U,40025,999,65434,.49283E-3,.1007E-3,0
