GOMX-1                  
1 39430U 13066Q   26176.83371019  .00001672  00000+0  25537-3 0  9999
2 39430  97.6487  16.7507 0129859  50.1209 311.1332 14.69486911671185
CUBEBUG-2 (LO-74)       
1 39440U 13066AA  26176.83815360  .00004524  00000+0  41819-3 0  9992
2 39440  97.8903 125.8528 0057564   0.5259 359.6011 14.93829236678280
NEE-02 KRYSAOR          
1 39441U 13066AB  26176.55526841  .00002568  00000+0  28387-3 0  9996
2 39441  97.8891 115.7100 0067228  43.3544 317.2932 14.86653035677444
FUNCUBE-1 (AO-73)       
1 39444U 13066AE  26176.87279233  .00008216  00000+0  50757-3 0  9996
2 39444  97.8271 148.5000 0036539 171.4630 188.7228 15.09583656680970
UWE-3                   
1 39446U 13066AG  26176.83787144  .00004431  00000+0  38106-3 0  9998
2 39446  97.8708 132.9703 0046808 291.8607  67.7640 14.97092153678878
SMDC ONE 2.4            
1 39469U 13072H   26176.43352622  .00012989  00000+0  48691-3 0  9992
2 39469 120.4943  23.9257 0146427  27.7692 333.1109 15.18330751119084
COSMOS 2488 (RODNIK-S 7)
1 39483U 13076A   26176.81186809  .00000027  00000+0  11900-3 0  9999
2 39483  82.4833 163.3213 0020889  77.5133 282.8282 12.42905984566967
COSMOS 2489 (RODNIK-S 8)
1 39484U 13076B   26176.78725105  .00000043  00000+0  23790-3 0  9992
2 39484  82.4870 164.7184 0022704  77.5018 282.8600 12.42879783567019
COSMOS 2490 (RODNIK-S 9)
1 39485U 13076C   26176.83965108  .00000146  00000+0  97896-3 0  9990
2 39485  82.4817 162.7493 0022866  92.1688 268.2010 12.42878981566951
KAZEOSAT 1              
1 39731U 14024A   26176.83353209  .00000070  00000+0  34385-4 0  9992
2 39731  98.3206 249.0660 0001239  75.1689 284.9638 14.42082680639802
COSMOS 2496 (RODNIK-S *)
1 39761U 14028A   26176.87765778 -.00000006  00000+0 -11352-3 0  9990
2 39761  82.4451 103.2883 0021333  60.9468 299.3745 12.42878823548597
COSMOS 2497 (RODNIK-S *)
1 39762U 14028B   26176.85282804  .00000102  00000+0  66778-3 0  9990
2 39762  82.4498 104.9969 0021848  56.2869 304.0289 12.42894907548594
COSMOS 2498 (RODNIK-S *)
1 39763U 14028C   26176.82983029  .00000067  00000+0  41125-3 0  9994
2 39763  82.4459 103.4946 0022569  55.8931 304.4286 12.42980674548629
HODOYOSHI-4             
1 40011U 14033B   26176.84247440  .00000981  00000+0  11174-3 0  9996
2 40011  97.5456   1.2475 0022137 278.1071  81.7635 14.88143804650095
UNISAT-6                
1 40012U 14033C   26176.67195425  .00002557  00000+0  27740-3 0  9990
2 40012  97.7883 329.2349 0045787  42.0208 318.4506 14.88284498647426
DEIMOS-2                
1 40013U 14033D   26176.82458350  .00001227  00000+0  12095-3 0  9997
2 40013  97.5830  51.0101 0001335  56.4467 303.6881 14.93748854639015
BUGSAT-1 (TITA)         
1 40014U 14033E   26176.81701166  .00007798  00000+0  40937-3 0  9998
2 40014  98.0423 269.8714 0028608 149.2480 211.0435 15.15675037657145
SAUDISAT 4              
1 40016U 14033G   26176.84303425  .00000567  00000+0  81336-4 0  9995
2 40016  97.7592 322.6786 0045795  46.6054 313.8957 14.79554772647353
APRIZESAT 9             
1 40018U 14033J   26176.82762062  .00000704  00000+0  11065-3 0  9995
2 40018  97.9069 309.8154 0066378 171.3507 188.8862 14.74226017644839
BRITE-CA1 (TORONTO)     
1 40020U 14033L   26176.80261441  .00000804  00000+0  12849-3 0  9993
2 40020  97.9748 305.5721 0077301 248.9383 110.3546 14.72689009643481
DUCHIFAT-1              
1 40021U 14033M   26176.71541039  .00141113  00000+0  13462-2 0  9998
2 40021  98.0450 237.0839 0001518 101.6443 258.4986 15.66313669657085
NANOSATC-BR1            
1 40024U 14033Q   26176.63348399  .00022266  00000+0  72838-3 0  9996
2 40024  98.0720 209.7702 0005085 143.3230 216.8358 15.31712804655279
QB50P1                  
1 40025U 14033R   26176.84938076  .00010070  00000+0  49283-3 0  9995
2 40025  98.0964 188.6029 0008695 184.5667 175.5487 15.18382181654345
